[Satellite]
VERSION=1.1
NAME=ERS-1
NICKNAME=ERS-1
TLE1=1 21574U 91050A   22342.37876129  .00000181  00000+0  74426-4 0  9996
TLE2=2 21574  98.7208 313.5292 0033678 121.2054 239.2440 14.37973461645017
STATUS=0
